[{"OBJECT_NAME":"OTTER","OBJECT_ID":"2025-009Q","EPOCH":"2026-03-09T17:21:07.902432","MEAN_MOTION":15.27809545,"ECCENTRICITY":0.00035728,"INCLINATION":97.4065,"RA_OF_ASC_NODE":151.3812,"ARG_OF_PERICENTER":310.771,"MEAN_ANOMALY":49.3219,"EPHEMERIS_TYPE":0,"CLASSIFICATION_TYPE":"U","NORAD_CAT_ID":62623,"ELEMENT_SET_NO":999,"REV_AT_EPOCH":6372,"BSTAR":0.00045151206,"MEAN_MOTION_DOT":0.00012198,"MEAN_MOTION_DDOT":0},{"OBJECT_NAME":"STARLINK-35292","OBJECT_ID":"2025-253D","EPOCH":"2026-03-09T09:46:40.895328","MEAN_MOTION":15.27599112,"ECCENTRICITY":0.0001924,"INCLINATION":43,"RA_OF_ASC_NODE":213.9049,"ARG_OF_PERICENTER":267.9538,"MEAN_ANOMALY":92.1093,"EPHEMERIS_TYPE":0,"CLASSIFICATION_TYPE":"U","NORAD_CAT_ID":66322,"ELEMENT_SET_NO":999,"REV_AT_EPOCH":2020,"BSTAR":0.0015378059,"MEAN_MOTION_DOT":0.00042324,"MEAN_MOTION_DDOT":0}]
